ONEWEB-0264             
1 48982U 21060R   24083.88892866 -.00000013  00000+0 -66563-4 0  9997
2 48982  87.9129  31.0488 0001833  78.1044 282.0293 13.16595346132311
ONEWEB-0266             
1 48984U 21060T   24083.91029088  .00000037  00000+0  64070-4 0  9996
2 48984  87.9127  31.0242 0001883  84.1162 276.0183 13.16596505132300
ONEWEB-0267             
1 48985U 21060U   24083.84539126  .00000112  00000+0  26036-3 0  9991
2 48985  87.9126  31.0387 0001739  67.2671 292.8643 13.16594708132307
ONEWEB-0268             
1 48986U 21060V   24083.81372188 -.00000004  00000+0 -44366-4 0  9991
2 48986  87.9125  31.0507 0001942  75.3212 284.8134 13.16593435132568
ONEWEB-0269             
1 48987U 21060W   24083.87072064 -.00000021  00000+0 -89755-4 0  9998
2 48987  87.9133  31.0626 0001963  80.7740 279.3613 13.16595718132342
ONEWEB-0270             
1 48988U 21060X   24083.81213330 -.00000098  00000+0 -29090-3 0  9995
2 48988  87.9126  31.0599 0001266  73.6254 286.5016 13.16594203132379
ONEWEB-0271             
1 48989U 21060Y   24083.87546946 -.00000030  00000+0 -11084-3 0  9994
2 48989  87.9129  31.0233 0001603  69.5970 290.5332 13.16595541132385
ONEWEB-0272             
1 48990U 21060Z   24083.89763625 -.00000007  00000+0 -50637-4 0  9995
2 48990  87.9128  31.0464 0001733  70.1090 290.0227 13.16595274132333
